IRIDIUM 112             
1 41925U 17003J   24316.28733355  .00000745  00000+0  25891-3 0  9997
2 41925  86.3953 331.9035 0002257 102.2790 257.8658 14.34223452409721
IRIDIUM 111             
1 41926U 17003K   24316.34442577  .00001013  00000+0  35447-3 0  9995
2 41926  86.3956 331.9374 0002382  92.6732 267.4736 14.34220609409712
IRIDIUM 113             
1 42803U 17039A   24316.53369260  .00001178  00000+0  41344-3 0  9992
2 42803  86.4025 205.6221 0002251  93.9310 266.2143 14.34220016387675
IRIDIUM 123             
1 42804U 17039B   24316.50539954  .00001197  00000+0  42041-3 0  9995
2 42804  86.3992 237.0838 0002483  79.1160 281.0315 14.34213986386434
IRIDIUM 120             
1 42805U 17039C   24316.10873073  .00001345  00000+0  47296-3 0  9997
2 42805  86.4015 205.6577 0002045  75.9773 284.1650 14.34233951387601
IRIDIUM 115             
1 42806U 17039D   24316.18488530  .00001858  00000+0  54647-3 0  9993
2 42806  86.4556 205.6724 0002550  79.2777 280.8711 14.43271554390176
IRIDIUM 118             
1 42807U 17039E   24316.53710840  .00001209  00000+0  42454-3 0  9998
2 42807  86.3992 237.0716 0002067  84.1121 276.0310 14.34225766386431
IRIDIUM 117             
1 42808U 17039F   24316.48637473  .00000875  00000+0  30525-3 0  9997
2 42808  86.3989 237.0559 0002455  81.1903 278.9571 14.34220939386458
